<?xml version="1.0" encoding="UTF-8"?>
<gpx version="1.1" creator="GPX Zone App" xmlns="http://www.topografix.com/GPX/1/1" xmlns:gpxtpx="http://www.garmin.com/xmlschemas/TrackPointExtension/v1">
  <metadata>
    <name>Combined GPX</name>
    <desc>Combined GPX file</desc>
    <time>2026-05-26T16:43:18.520Z</time>
  </metadata>
  
  <trk>
    <name>Hochkoenigman Marathon Trail Original sur TraceDeTrail.fr</name>
    
    <trkseg>
      
      <trkpt lat="47.40701" lon="12.90564">
        <ele>806</ele>
        <time>2024-05-22T10:19:29.000Z</time>
      </trkpt>
      <trkpt lat="47.40651" lon="12.90715">
        <ele>811</ele>
        <time>2024-05-22T10:20:05.000Z</time>
      </trkpt>
      <trkpt lat="47.40676" lon="12.90845">
        <ele>813</ele>
        <time>2024-05-22T10:20:17.000Z</time>
      </trkpt>
      <trkpt lat="47.40651" lon="12.90888">
        <ele>816</ele>
        <time>2024-05-22T10:20:23.000Z</time>
      </trkpt>
      <trkpt lat="47.40638" lon="12.9095">
        <ele>822</ele>
        <time>2024-05-22T10:20:26.000Z</time>
      </trkpt>
      <trkpt lat="47.40679" lon="12.91041">
        <ele>826</ele>
        <time>2024-05-22T10:20:35.000Z</time>
      </trkpt>
      <trkpt lat="47.40675" lon="12.91115">
        <ele>834</ele>
        <time>2024-05-22T10:20:41.000Z</time>
      </trkpt>
      <trkpt lat="47.4062" lon="12.91227">
        <ele>847</ele>
        <time>2024-05-22T10:20:53.000Z</time>
      </trkpt>
      <trkpt lat="47.40541" lon="12.9121">
        <ele>855</ele>
        <time>2024-05-22T10:21:08.000Z</time>
      </trkpt>
      <trkpt lat="47.40517" lon="12.91193">
        <ele>860</ele>
        <time>2024-05-22T10:21:11.000Z</time>
      </trkpt>
      <trkpt lat="47.40468" lon="12.91193">
        <ele>870</ele>
        <time>2024-05-22T10:21:20.000Z</time>
      </trkpt>
      <trkpt lat="47.40444" lon="12.91127">
        <ele>868</ele>
        <time>2024-05-22T10:21:32.000Z</time>
      </trkpt>
      <trkpt lat="47.40413" lon="12.9112">
        <ele>874</ele>
        <time>2024-05-22T10:21:41.000Z</time>
      </trkpt>
      <trkpt lat="47.40355" lon="12.91026">
        <ele>878</ele>
        <time>2024-05-22T10:22:26.000Z</time>
      </trkpt>
      <trkpt lat="47.40324" lon="12.90926">
        <ele>873</ele>
        <time>2024-05-22T10:23:02.000Z</time>
      </trkpt>
      <trkpt lat="47.40305" lon="12.90924">
        <ele>878</ele>
        <time>2024-05-22T10:23:17.000Z</time>
      </trkpt>
      <trkpt lat="47.40265" lon="12.90887">
        <ele>884</ele>
        <time>2024-05-22T10:23:56.000Z</time>
      </trkpt>
      <trkpt lat="47.40213" lon="12.90873">
        <ele>892</ele>
        <time>2024-05-22T10:24:44.000Z</time>
      </trkpt>
      <trkpt lat="47.40176" lon="12.909">
        <ele>903</ele>
        <time>2024-05-22T10:25:20.000Z</time>
      </trkpt>
      <trkpt lat="47.40143559546874" lon="12.909573912620544">
        <ele>923</ele>
        <time>2024-05-22T10:26:20.000Z</time>
      </trkpt>
      <trkpt lat="47.401283095485965" lon="12.909874320030214">
        <ele>925</ele>
        <time>2024-05-22T10:26:35.000Z</time>
      </trkpt>
      <trkpt lat="47.40125041686081" lon="12.910367846488954">
        <ele>946</ele>
        <time>2024-05-22T10:27:29.000Z</time>
      </trkpt>
      <trkpt lat="47.401123333125796" lon="12.910711169242859">
        <ele>943</ele>
        <time>2024-05-22T10:28:02.000Z</time>
      </trkpt>
      <trkpt lat="47.40072" lon="12.91251">
        <ele>1000</ele>
        <time>2024-05-22T10:31:32.000Z</time>
      </trkpt>
      <trkpt lat="47.40078" lon="12.91373">
        <ele>1031</ele>
        <time>2024-05-22T10:31:53.000Z</time>
      </trkpt>
      <trkpt lat="47.40067" lon="12.91383">
        <ele>1037</ele>
        <time>2024-05-22T10:32:02.000Z</time>
      </trkpt>
      <trkpt lat="47.40059320909611" lon="12.914039790630342">
        <ele>1038</ele>
        <time>2024-05-22T10:32:05.000Z</time>
      </trkpt>
      <trkpt lat="47.40054237500478" lon="12.914249002933504">
        <ele>1047</ele>
        <time>2024-05-22T10:32:11.000Z</time>
      </trkpt>
      <trkpt lat="47.40071" lon="12.91456">
        <ele>1049</ele>
        <time>2024-05-22T10:32:17.000Z</time>
      </trkpt>
      <trkpt lat="47.4007" lon="12.91516">
        <ele>1061</ele>
        <time>2024-05-22T10:32:20.000Z</time>
      </trkpt>
      <trkpt lat="47.40039" lon="12.91595">
        <ele>1082</ele>
        <time>2024-05-22T10:32:26.000Z</time>
      </trkpt>
      <trkpt lat="47.4" lon="12.91626">
        <ele>1092</ele>
        <time>2024-05-22T10:32:32.000Z</time>
      </trkpt>
      <trkpt lat="47.39988" lon="12.91655">
        <ele>1099</ele>
        <time>2024-05-22T10:32:41.000Z</time>
      </trkpt>
      <trkpt lat="47.39948" lon="12.91698">
        <ele>1107</ele>
        <time>2024-05-22T10:32:50.000Z</time>
      </trkpt>
      <trkpt lat="47.39925" lon="12.91756">
        <ele>1118</ele>
        <time>2024-05-22T10:32:56.000Z</time>
      </trkpt>
      <trkpt lat="47.39917" lon="12.91853">
        <ele>1130</ele>
        <time>2024-05-22T10:33:11.000Z</time>
      </trkpt>
      <trkpt lat="47.39889" lon="12.91937">
        <ele>1136</ele>
        <time>2024-05-22T10:33:23.000Z</time>
      </trkpt>
      <trkpt lat="47.39865" lon="12.91954">
        <ele>1139</ele>
        <time>2024-05-22T10:33:32.000Z</time>
      </trkpt>
      <trkpt lat="47.39828" lon="12.92041">
        <ele>1147</ele>
        <time>2024-05-22T10:33:47.000Z</time>
      </trkpt>
      <trkpt lat="47.39815" lon="12.92125">
        <ele>1150</ele>
        <time>2024-05-22T10:33:56.000Z</time>
      </trkpt>
      <trkpt lat="47.39796" lon="12.92158">
        <ele>1156</ele>
        <time>2024-05-22T10:34:02.000Z</time>
      </trkpt>
      <trkpt lat="47.39763" lon="12.92154">
        <ele>1160</ele>
        <time>2024-05-22T10:34:11.000Z</time>
      </trkpt>
      <trkpt lat="47.39742" lon="12.92173">
        <ele>1163</ele>
        <time>2024-05-22T10:34:17.000Z</time>
      </trkpt>
      <trkpt lat="47.39669" lon="12.92379">
        <ele>1187</ele>
        <time>2024-05-22T10:34:41.000Z</time>
      </trkpt>
      <trkpt lat="47.39671" lon="12.92423">
        <ele>1187</ele>
        <time>2024-05-22T10:34:53.000Z</time>
      </trkpt>
      <trkpt lat="47.39582" lon="12.92575">
        <ele>1213</ele>
        <time>2024-05-22T10:35:26.000Z</time>
      </trkpt>
      <trkpt lat="47.39543" lon="12.92739">
        <ele>1227</ele>
        <time>2024-05-22T10:35:56.000Z</time>
      </trkpt>
      <trkpt lat="47.39551" lon="12.92854">
        <ele>1227</ele>
        <time>2024-05-22T10:36:11.000Z</time>
      </trkpt>
      <trkpt lat="47.39474" lon="12.93004">
        <ele>1237</ele>
        <time>2024-05-22T10:36:29.000Z</time>
      </trkpt>
      <trkpt lat="47.3946" lon="12.9306">
        <ele>1236</ele>
        <time>2024-05-22T10:36:35.000Z</time>
      </trkpt>
      <trkpt lat="47.39459" lon="12.93275">
        <ele>1227</ele>
        <time>2024-05-22T10:36:59.000Z</time>
      </trkpt>
      <trkpt lat="47.39473" lon="12.93349">
        <ele>1220</ele>
        <time>2024-05-22T10:37:08.000Z</time>
      </trkpt>
      <trkpt lat="47.39514" lon="12.93453">
        <ele>1204</ele>
        <time>2024-05-22T10:37:20.000Z</time>
      </trkpt>
      <trkpt lat="47.39525" lon="12.93601">
        <ele>1191</ele>
        <time>2024-05-22T10:37:38.000Z</time>
      </trkpt>
      <trkpt lat="47.39516" lon="12.93632">
        <ele>1190</ele>
        <time>2024-05-22T10:37:41.000Z</time>
      </trkpt>
      <trkpt lat="47.39537" lon="12.93783">
        <ele>1166</ele>
        <time>2024-05-22T10:37:56.000Z</time>
      </trkpt>
      <trkpt lat="47.39496" lon="12.94094">
        <ele>1133</ele>
        <time>2024-05-22T10:38:23.000Z</time>
      </trkpt>
      <trkpt lat="47.39528" lon="12.94161">
        <ele>1127</ele>
        <time>2024-05-22T10:38:29.000Z</time>
      </trkpt>
      <trkpt lat="47.39599" lon="12.94204">
        <ele>1119</ele>
        <time>2024-05-22T10:38:35.000Z</time>
      </trkpt>
      <trkpt lat="47.39634" lon="12.94152">
        <ele>1113</ele>
        <time>2024-05-22T10:38:41.000Z</time>
      </trkpt>
      <trkpt lat="47.39654" lon="12.94142">
        <ele>1108</ele>
        <time>2024-05-22T10:38:44.000Z</time>
      </trkpt>
      <trkpt lat="47.3968" lon="12.94151">
        <ele>1102</ele>
        <time>2024-05-22T10:38:50.000Z</time>
      </trkpt>
      <trkpt lat="47.39726" lon="12.94223">
        <ele>1097</ele>
        <time>2024-05-22T10:39:05.000Z</time>
      </trkpt>
      <trkpt lat="47.39799" lon="12.94403">
        <ele>1117</ele>
        <time>2024-05-22T10:39:20.000Z</time>
      </trkpt>
      <trkpt lat="47.39852" lon="12.94518">
        <ele>1130</ele>
        <time>2024-05-22T10:39:32.000Z</time>
      </trkpt>
      <trkpt lat="47.39936" lon="12.94566">
        <ele>1145</ele>
        <time>2024-05-22T10:39:41.000Z</time>
      </trkpt>
      <trkpt lat="47.39973" lon="12.94544">
        <ele>1142</ele>
        <time>2024-05-22T10:39:47.000Z</time>
      </trkpt>
      <trkpt lat="47.40041" lon="12.94518">
        <ele>1142</ele>
        <time>2024-05-22T10:40:02.000Z</time>
      </trkpt>
      <trkpt lat="47.40092" lon="12.9448">
        <ele>1141</ele>
        <time>2024-05-22T10:40:11.000Z</time>
      </trkpt>
      <trkpt lat="47.40135" lon="12.94473">
        <ele>1147</ele>
        <time>2024-05-22T10:40:20.000Z</time>
      </trkpt>
      <trkpt lat="47.40191" lon="12.94407">
        <ele>1137</ele>
        <time>2024-05-22T10:40:35.000Z</time>
      </trkpt>
      <trkpt lat="47.40246" lon="12.94399">
        <ele>1135</ele>
        <time>2024-05-22T10:40:50.000Z</time>
      </trkpt>
      <trkpt lat="47.40333" lon="12.94365">
        <ele>1125</ele>
        <time>2024-05-22T10:41:08.000Z</time>
      </trkpt>
      <trkpt lat="47.40348" lon="12.94371">
        <ele>1128</ele>
        <time>2024-05-22T10:41:11.000Z</time>
      </trkpt>
      <trkpt lat="47.40387" lon="12.9436">
        <ele>1126</ele>
        <time>2024-05-22T10:41:20.000Z</time>
      </trkpt>
      <trkpt lat="47.40479" lon="12.9438">
        <ele>1133</ele>
        <time>2024-05-22T10:41:35.000Z</time>
      </trkpt>
      <trkpt lat="47.40531" lon="12.94327">
        <ele>1132</ele>
        <time>2024-05-22T10:41:50.000Z</time>
      </trkpt>
      <trkpt lat="47.40571" lon="12.94248">
        <ele>1120</ele>
        <time>2024-05-22T10:42:08.000Z</time>
      </trkpt>
      <trkpt lat="47.40598" lon="12.94236">
        <ele>1122</ele>
        <time>2024-05-22T10:42:14.000Z</time>
      </trkpt>
      <trkpt lat="47.40644" lon="12.9429">
        <ele>1131</ele>
        <time>2024-05-22T10:42:26.000Z</time>
      </trkpt>
      <trkpt lat="47.40638" lon="12.94332">
        <ele>1140</ele>
        <time>2024-05-22T10:42:29.000Z</time>
      </trkpt>
      <trkpt lat="47.40651" lon="12.94372">
        <ele>1139</ele>
        <time>2024-05-22T10:42:35.000Z</time>
      </trkpt>
      <trkpt lat="47.40674" lon="12.9437">
        <ele>1139</ele>
        <time>2024-05-22T10:42:41.000Z</time>
      </trkpt>
      <trkpt lat="47.40696" lon="12.94388">
        <ele>1139</ele>
        <time>2024-05-22T10:42:44.000Z</time>
      </trkpt>
      <trkpt lat="47.40752" lon="12.94397">
        <ele>1135</ele>
        <time>2024-05-22T10:42:53.000Z</time>
      </trkpt>
      <trkpt lat="47.40769" lon="12.94381">
        <ele>1133</ele>
        <time>2024-05-22T10:42:56.000Z</time>
      </trkpt>
      <trkpt lat="47.40882" lon="12.94386">
        <ele>1136</ele>
        <time>2024-05-22T10:43:05.000Z</time>
      </trkpt>
      <trkpt lat="47.41022" lon="12.94268">
        <ele>1139</ele>
        <time>2024-05-22T10:43:17.000Z</time>
      </trkpt>
      <trkpt lat="47.41083" lon="12.94245">
        <ele>1145</ele>
        <time>2024-05-22T10:43:29.000Z</time>
      </trkpt>
      <trkpt lat="47.41122" lon="12.94219">
        <ele>1147</ele>
        <time>2024-05-22T10:43:38.000Z</time>
      </trkpt>
      <trkpt lat="47.41199" lon="12.94214">
        <ele>1154</ele>
        <time>2024-05-22T10:43:47.000Z</time>
      </trkpt>
      <trkpt lat="47.41236" lon="12.94233">
        <ele>1161</ele>
        <time>2024-05-22T10:43:50.000Z</time>
      </trkpt>
      <trkpt lat="47.41271" lon="12.94279">
        <ele>1172</ele>
        <time>2024-05-22T10:43:56.000Z</time>
      </trkpt>
      <trkpt lat="47.41382" lon="12.94336">
        <ele>1185</ele>
        <time>2024-05-22T10:44:05.000Z</time>
      </trkpt>
      <trkpt lat="47.41402" lon="12.94415">
        <ele>1210</ele>
        <time>2024-05-22T10:44:11.000Z</time>
      </trkpt>
      <trkpt lat="47.41425" lon="12.94461">
        <ele>1215</ele>
        <time>2024-05-22T10:44:14.000Z</time>
      </trkpt>
      <trkpt lat="47.41478" lon="12.94508">
        <ele>1215</ele>
        <time>2024-05-22T10:44:20.000Z</time>
      </trkpt>
      <trkpt lat="47.41543" lon="12.94684">
        <ele>1256</ele>
        <time>2024-05-22T10:44:29.000Z</time>
      </trkpt>
      <trkpt lat="47.41616" lon="12.94774">
        <ele>1263</ele>
        <time>2024-05-22T10:44:38.000Z</time>
      </trkpt>
      <trkpt lat="47.41743" lon="12.94871">
        <ele>1283</ele>
        <time>2024-05-22T10:44:53.000Z</time>
      </trkpt>
      <trkpt lat="47.41881" lon="12.95073">
        <ele>1307</ele>
        <time>2024-05-22T10:45:08.000Z</time>
      </trkpt>
      <trkpt lat="47.41979" lon="12.95176">
        <ele>1309</ele>
        <time>2024-05-22T10:45:17.000Z</time>
      </trkpt>
      <trkpt lat="47.42039" lon="12.95238">
        <ele>1313</ele>
        <time>2024-05-22T10:45:23.000Z</time>
      </trkpt>
      <trkpt lat="47.42166" lon="12.95275">
        <ele>1323</ele>
        <time>2024-05-22T10:45:35.000Z</time>
      </trkpt>
      <trkpt lat="47.42197" lon="12.95325">
        <ele>1339</ele>
        <time>2024-05-22T10:45:41.000Z</time>
      </trkpt>
      <trkpt lat="47.42197" lon="12.95462">
        <ele>1348</ele>
        <time>2024-05-22T10:45:50.000Z</time>
      </trkpt>
      <trkpt lat="47.42228" lon="12.95553">
        <ele>1342</ele>
        <time>2024-05-22T10:45:56.000Z</time>
      </trkpt>
      <trkpt lat="47.42232754984599" lon="12.95612096786499">
        <ele>1327</ele>
        <time>2024-05-22T10:46:11.000Z</time>
      </trkpt>
      <trkpt lat="47.422592503161155" lon="12.956550121307375">
        <ele>1329</ele>
        <time>2024-05-22T10:46:14.000Z</time>
      </trkpt>
      <trkpt lat="47.42295" lon="12.95747">
        <ele>1311</ele>
        <time>2024-05-22T10:46:35.000Z</time>
      </trkpt>
      <trkpt lat="47.423" lon="12.95811">
        <ele>1293</ele>
        <time>2024-05-22T10:46:44.000Z</time>
      </trkpt>
      <trkpt lat="47.42298" lon="12.9591">
        <ele>1272</ele>
        <time>2024-05-22T10:46:59.000Z</time>
      </trkpt>
      <trkpt lat="47.42253" lon="12.95991">
        <ele>1247</ele>
        <time>2024-05-22T10:47:11.000Z</time>
      </trkpt>
      <trkpt lat="47.42249" lon="12.96028">
        <ele>1238</ele>
        <time>2024-05-22T10:47:14.000Z</time>
      </trkpt>
      <trkpt lat="47.42204" lon="12.96074">
        <ele>1219</ele>
        <time>2024-05-22T10:47:32.000Z</time>
      </trkpt>
      <trkpt lat="47.42154" lon="12.96029">
        <ele>1217</ele>
        <time>2024-05-22T10:47:41.000Z</time>
      </trkpt>
      <trkpt lat="47.42119" lon="12.96033">
        <ele>1204</ele>
        <time>2024-05-22T10:47:56.000Z</time>
      </trkpt>
      <trkpt lat="47.42106" lon="12.96152">
        <ele>1178</ele>
        <time>2024-05-22T10:48:20.000Z</time>
      </trkpt>
      <trkpt lat="47.42092" lon="12.96226">
        <ele>1164</ele>
        <time>2024-05-22T10:48:32.000Z</time>
      </trkpt>
      <trkpt lat="47.41946" lon="12.96147">
        <ele>1145</ele>
        <time>2024-05-22T10:48:53.000Z</time>
      </trkpt>
      <trkpt lat="47.41874" lon="12.9614">
        <ele>1136</ele>
        <time>2024-05-22T10:48:59.000Z</time>
      </trkpt>
      <trkpt lat="47.41816" lon="12.9616">
        <ele>1126</ele>
        <time>2024-05-22T10:49:08.000Z</time>
      </trkpt>
      <trkpt lat="47.41773" lon="12.9616">
        <ele>1125</ele>
        <time>2024-05-22T10:49:14.000Z</time>
      </trkpt>
      <trkpt lat="47.41585" lon="12.96202">
        <ele>1108</ele>
        <time>2024-05-22T10:49:41.000Z</time>
      </trkpt>
      <trkpt lat="47.41528" lon="12.96203">
        <ele>1107</ele>
        <time>2024-05-22T10:49:47.000Z</time>
      </trkpt>
      <trkpt lat="47.4148" lon="12.96243">
        <ele>1093</ele>
        <time>2024-05-22T10:49:56.000Z</time>
      </trkpt>
      <trkpt lat="47.41435" lon="12.96246">
        <ele>1089</ele>
        <time>2024-05-22T10:50:05.000Z</time>
      </trkpt>
      <trkpt lat="47.41397" lon="12.96276">
        <ele>1084</ele>
        <time>2024-05-22T10:50:14.000Z</time>
      </trkpt>
      <trkpt lat="47.41382" lon="12.96304">
        <ele>1075</ele>
        <time>2024-05-22T10:50:20.000Z</time>
      </trkpt>
      <trkpt lat="47.41347" lon="12.96326">
        <ele>1067</ele>
        <time>2024-05-22T10:50:26.000Z</time>
      </trkpt>
      <trkpt lat="47.41247" lon="12.96324">
        <ele>1060</ele>
        <time>2024-05-22T10:50:41.000Z</time>
      </trkpt>
      <trkpt lat="47.41145" lon="12.96353">
        <ele>1047</ele>
        <time>2024-05-22T10:50:56.000Z</time>
      </trkpt>
      <trkpt lat="47.4101" lon="12.96388">
        <ele>1030</ele>
        <time>2024-05-22T10:51:08.000Z</time>
      </trkpt>
      <trkpt lat="47.40961" lon="12.96426">
        <ele>1027</ele>
        <time>2024-05-22T10:51:14.000Z</time>
      </trkpt>
      <trkpt lat="47.40946" lon="12.96461">
        <ele>1023</ele>
        <time>2024-05-22T10:51:20.000Z</time>
      </trkpt>
      <trkpt lat="47.40905" lon="12.96493">
        <ele>1021</ele>
        <time>2024-05-22T10:51:26.000Z</time>
      </trkpt>
      <trkpt lat="47.40822" lon="12.96516">
        <ele>1014</ele>
        <time>2024-05-22T10:51:32.000Z</time>
      </trkpt>
      <trkpt lat="47.40731" lon="12.96573">
        <ele>1002</ele>
        <time>2024-05-22T10:51:41.000Z</time>
      </trkpt>
      <trkpt lat="47.40674" lon="12.96567">
        <ele>1001</ele>
        <time>2024-05-22T10:51:53.000Z</time>
      </trkpt>
      <trkpt lat="47.40665" lon="12.96624">
        <ele>993</ele>
        <time>2024-05-22T10:51:59.000Z</time>
      </trkpt>
      <trkpt lat="47.40763" lon="12.96858">
        <ele>1006</ele>
        <time>2024-05-22T10:52:17.000Z</time>
      </trkpt>
      <trkpt lat="47.40781" lon="12.97035">
        <ele>1010</ele>
        <time>2024-05-22T10:52:29.000Z</time>
      </trkpt>
      <trkpt lat="47.4076" lon="12.97095">
        <ele>1003</ele>
        <time>2024-05-22T10:52:35.000Z</time>
      </trkpt>
      <trkpt lat="47.40773" lon="12.97131">
        <ele>1003</ele>
        <time>2024-05-22T10:52:41.000Z</time>
      </trkpt>
      <trkpt lat="47.40698" lon="12.97182">
        <ele>998</ele>
        <time>2024-05-22T10:52:47.000Z</time>
      </trkpt>
      <trkpt lat="47.40653" lon="12.97269">
        <ele>997</ele>
        <time>2024-05-22T10:53:08.000Z</time>
      </trkpt>
      <trkpt lat="47.40639" lon="12.97323">
        <ele>998</ele>
        <time>2024-05-22T10:53:11.000Z</time>
      </trkpt>
      <trkpt lat="47.4071" lon="12.97462">
        <ele>999</ele>
        <time>2024-05-22T10:53:23.000Z</time>
      </trkpt>
      <trkpt lat="47.40818" lon="12.97582">
        <ele>1000</ele>
        <time>2024-05-22T10:53:38.000Z</time>
      </trkpt>
      <trkpt lat="47.40899" lon="12.97729">
        <ele>1006</ele>
        <time>2024-05-22T10:53:47.000Z</time>
      </trkpt>
      <trkpt lat="47.41089" lon="12.97906">
        <ele>1020</ele>
        <time>2024-05-22T10:54:05.000Z</time>
      </trkpt>
      <trkpt lat="47.4112854329703" lon="12.979206740856172">
        <ele>1020</ele>
        <time>2024-05-22T10:54:11.000Z</time>
      </trkpt>
      <trkpt lat="47.41090425347068" lon="12.979839742183687">
        <ele>1020</ele>
        <time>2024-05-22T10:54:23.000Z</time>
      </trkpt>
      <trkpt lat="47.41062" lon="12.98149">
        <ele>1034</ele>
        <time>2024-05-22T10:54:35.000Z</time>
      </trkpt>
      <trkpt lat="47.41053" lon="12.98349">
        <ele>1050</ele>
        <time>2024-05-22T10:54:47.000Z</time>
      </trkpt>
      <trkpt lat="47.41118" lon="12.98632">
        <ele>1078</ele>
        <time>2024-05-22T10:55:05.000Z</time>
      </trkpt>
      <trkpt lat="47.41098" lon="12.98774">
        <ele>1091</ele>
        <time>2024-05-22T10:55:14.000Z</time>
      </trkpt>
      <trkpt lat="47.41114" lon="12.98943">
        <ele>1109</ele>
        <time>2024-05-22T10:55:23.000Z</time>
      </trkpt>
      <trkpt lat="47.41111" lon="12.99034">
        <ele>1120</ele>
        <time>2024-05-22T10:55:32.000Z</time>
      </trkpt>
      <trkpt lat="47.41127" lon="12.99089">
        <ele>1125</ele>
        <time>2024-05-22T10:55:41.000Z</time>
      </trkpt>
      <trkpt lat="47.41108" lon="12.9915">
        <ele>1133</ele>
        <time>2024-05-22T10:55:50.000Z</time>
      </trkpt>
      <trkpt lat="47.4112" lon="12.99231">
        <ele>1145</ele>
        <time>2024-05-22T10:55:59.000Z</time>
      </trkpt>
      <trkpt lat="47.41106" lon="12.99439">
        <ele>1173</ele>
        <time>2024-05-22T10:56:26.000Z</time>
      </trkpt>
      <trkpt lat="47.41079" lon="12.99495">
        <ele>1186</ele>
        <time>2024-05-22T10:56:38.000Z</time>
      </trkpt>
      <trkpt lat="47.41063" lon="12.99591">
        <ele>1201</ele>
        <time>2024-05-22T10:56:53.000Z</time>
      </trkpt>
      <trkpt lat="47.41036" lon="12.99658">
        <ele>1220</ele>
        <time>2024-05-22T10:57:05.000Z</time>
      </trkpt>
      <trkpt lat="47.41048" lon="12.99769">
        <ele>1233</ele>
        <time>2024-05-22T10:57:23.000Z</time>
      </trkpt>
      <trkpt lat="47.41057" lon="12.99974">
        <ele>1262</ele>
        <time>2024-05-22T10:57:59.000Z</time>
      </trkpt>
      <trkpt lat="47.41081" lon="12.99964">
        <ele>1263</ele>
        <time>2024-05-22T10:58:05.000Z</time>
      </trkpt>
      <trkpt lat="47.41108" lon="12.99982">
        <ele>1274</ele>
        <time>2024-05-22T10:58:11.000Z</time>
      </trkpt>
      <trkpt lat="47.4116" lon="13.0005">
        <ele>1312</ele>
        <time>2024-05-22T10:58:20.000Z</time>
      </trkpt>
      <trkpt lat="47.41205" lon="13.00128">
        <ele>1336</ele>
        <time>2024-05-22T10:58:47.000Z</time>
      </trkpt>
      <trkpt lat="47.41292" lon="13.00261">
        <ele>1375</ele>
        <time>2024-05-22T10:59:14.000Z</time>
      </trkpt>
      <trkpt lat="47.41278" lon="13.00408">
        <ele>1384</ele>
        <time>2024-05-22T10:59:38.000Z</time>
      </trkpt>
      <trkpt lat="47.41256" lon="13.00584">
        <ele>1416</ele>
        <time>2024-05-22T10:59:53.000Z</time>
      </trkpt>
      <trkpt lat="47.41227" lon="13.00594">
        <ele>1417</ele>
        <time>2024-05-22T10:59:59.000Z</time>
      </trkpt>
      <trkpt lat="47.41175" lon="13.00593">
        <ele>1422</ele>
        <time>2024-05-22T11:00:05.000Z</time>
      </trkpt>
      <trkpt lat="47.41113" lon="13.00573">
        <ele>1423</ele>
        <time>2024-05-22T11:00:11.000Z</time>
      </trkpt>
      <trkpt lat="47.41067" lon="13.00531">
        <ele>1428</ele>
        <time>2024-05-22T11:00:17.000Z</time>
      </trkpt>
      <trkpt lat="47.41016" lon="13.00582">
        <ele>1444</ele>
        <time>2024-05-22T11:00:23.000Z</time>
      </trkpt>
      <trkpt lat="47.40964" lon="13.00614">
        <ele>1435</ele>
        <time>2024-05-22T11:00:32.000Z</time>
      </trkpt>
      <trkpt lat="47.409370431884625" lon="13.006578683853151">
        <ele>1441</ele>
        <time>2024-05-22T11:00:38.000Z</time>
      </trkpt>
      <trkpt lat="47.40923" lon="13.00655">
        <ele>1436</ele>
        <time>2024-05-22T11:00:41.000Z</time>
      </trkpt>
      <trkpt lat="47.40910178161336" lon="13.006589412689209">
        <ele>1437</ele>
        <time>2024-05-22T11:00:44.000Z</time>
      </trkpt>
      <trkpt lat="47.40895474946579" lon="13.006498217582703">
        <ele>1429</ele>
        <time>2024-05-22T11:00:47.000Z</time>
      </trkpt>
      <trkpt lat="47.40867" lon="13.00652">
        <ele>1426</ele>
        <time>2024-05-22T11:00:53.000Z</time>
      </trkpt>
      <trkpt lat="47.40843" lon="13.00681">
        <ele>1427</ele>
        <time>2024-05-22T11:00:56.000Z</time>
      </trkpt>
      <trkpt lat="47.40843" lon="13.00744">
        <ele>1442</ele>
        <time>2024-05-22T11:01:02.000Z</time>
      </trkpt>
      <trkpt lat="47.40812" lon="13.00741">
        <ele>1435</ele>
        <time>2024-05-22T11:01:08.000Z</time>
      </trkpt>
      <trkpt lat="47.40786" lon="13.00797">
        <ele>1443</ele>
        <time>2024-05-22T11:01:14.000Z</time>
      </trkpt>
      <trkpt lat="47.40722" lon="13.00871">
        <ele>1453</ele>
        <time>2024-05-22T11:01:20.000Z</time>
      </trkpt>
      <trkpt lat="47.40677" lon="13.00916">
        <ele>1464</ele>
        <time>2024-05-22T11:01:26.000Z</time>
      </trkpt>
      <trkpt lat="47.40571" lon="13.00996">
        <ele>1476</ele>
        <time>2024-05-22T11:01:35.000Z</time>
      </trkpt>
      <trkpt lat="47.4056" lon="13.01061">
        <ele>1473</ele>
        <time>2024-05-22T11:01:41.000Z</time>
      </trkpt>
      <trkpt lat="47.40512" lon="13.01112">
        <ele>1468</ele>
        <time>2024-05-22T11:01:50.000Z</time>
      </trkpt>
      <trkpt lat="47.40533" lon="13.01227">
        <ele>1462</ele>
        <time>2024-05-22T11:01:59.000Z</time>
      </trkpt>
      <trkpt lat="47.40525" lon="13.01276">
        <ele>1457</ele>
        <time>2024-05-22T11:02:02.000Z</time>
      </trkpt>
      <trkpt lat="47.404273103909695" lon="13.013289570808412">
        <ele>1440</ele>
        <time>2024-05-22T11:02:38.000Z</time>
      </trkpt>
      <trkpt lat="47.4039" lon="13.01302">
        <ele>1433</ele>
        <time>2024-05-22T11:02:50.000Z</time>
      </trkpt>
      <trkpt lat="47.40354" lon="13.01185">
        <ele>1433</ele>
        <time>2024-05-22T11:02:59.000Z</time>
      </trkpt>
      <trkpt lat="47.40322" lon="13.01044">
        <ele>1438</ele>
        <time>2024-05-22T11:03:11.000Z</time>
      </trkpt>
      <trkpt lat="47.40282" lon="13.00957">
        <ele>1439</ele>
        <time>2024-05-22T11:03:20.000Z</time>
      </trkpt>
      <trkpt lat="47.4022" lon="13.0085">
        <ele>1436</ele>
        <time>2024-05-22T11:03:32.000Z</time>
      </trkpt>
      <trkpt lat="47.40197" lon="13.00853">
        <ele>1430</ele>
        <time>2024-05-22T11:03:35.000Z</time>
      </trkpt>
      <trkpt lat="47.40165" lon="13.00839">
        <ele>1428</ele>
        <time>2024-05-22T11:03:38.000Z</time>
      </trkpt>
      <trkpt lat="47.40143" lon="13.00804">
        <ele>1427</ele>
        <time>2024-05-22T11:03:44.000Z</time>
      </trkpt>
      <trkpt lat="47.40086" lon="13.00776">
        <ele>1416</ele>
        <time>2024-05-22T11:03:56.000Z</time>
      </trkpt>
      <trkpt lat="47.40068" lon="13.00755">
        <ele>1417</ele>
        <time>2024-05-22T11:03:59.000Z</time>
      </trkpt>
      <trkpt lat="47.40047" lon="13.00641">
        <ele>1421</ele>
        <time>2024-05-22T11:04:08.000Z</time>
      </trkpt>
      <trkpt lat="47.39996" lon="13.00578">
        <ele>1401</ele>
        <time>2024-05-22T11:04:17.000Z</time>
      </trkpt>
      <trkpt lat="47.3996" lon="13.00503">
        <ele>1390</ele>
        <time>2024-05-22T11:04:26.000Z</time>
      </trkpt>
      <trkpt lat="47.39946" lon="13.00434">
        <ele>1378</ele>
        <time>2024-05-22T11:04:35.000Z</time>
      </trkpt>
      <trkpt lat="47.39898" lon="13.0033">
        <ele>1347</ele>
        <time>2024-05-22T11:04:50.000Z</time>
      </trkpt>
      <trkpt lat="47.39848" lon="13.00228">
        <ele>1318</ele>
        <time>2024-05-22T11:05:02.000Z</time>
      </trkpt>
      <trkpt lat="47.398" lon="13.00138">
        <ele>1304</ele>
        <time>2024-05-22T11:05:17.000Z</time>
      </trkpt>
      <trkpt lat="47.39742" lon="13.00148">
        <ele>1297</ele>
        <time>2024-05-22T11:05:29.000Z</time>
      </trkpt>
      <trkpt lat="47.39668" lon="13.00323">
        <ele>1292</ele>
        <time>2024-05-22T11:05:44.000Z</time>
      </trkpt>
      <trkpt lat="47.39648" lon="13.00356">
        <ele>1290</ele>
        <time>2024-05-22T11:05:50.000Z</time>
      </trkpt>
      <trkpt lat="47.39624" lon="13.00345">
        <ele>1299</ele>
        <time>2024-05-22T11:05:56.000Z</time>
      </trkpt>
      <trkpt lat="47.39615" lon="13.00363">
        <ele>1296</ele>
        <time>2024-05-22T11:05:59.000Z</time>
      </trkpt>
      <trkpt lat="47.3961" lon="13.00442">
        <ele>1292</ele>
        <time>2024-05-22T11:06:05.000Z</time>
      </trkpt>
      <trkpt lat="47.39564" lon="13.00555">
        <ele>1290</ele>
        <time>2024-05-22T11:06:14.000Z</time>
      </trkpt>
      <trkpt lat="47.39489" lon="13.00617">
        <ele>1303</ele>
        <time>2024-05-22T11:06:23.000Z</time>
      </trkpt>
      <trkpt lat="47.39467" lon="13.00663">
        <ele>1304</ele>
        <time>2024-05-22T11:06:29.000Z</time>
      </trkpt>
      <trkpt lat="47.39395" lon="13.00706">
        <ele>1316</ele>
        <time>2024-05-22T11:06:35.000Z</time>
      </trkpt>
      <trkpt lat="47.39373" lon="13.00758">
        <ele>1324</ele>
        <time>2024-05-22T11:06:41.000Z</time>
      </trkpt>
      <trkpt lat="47.39345" lon="13.00781">
        <ele>1327</ele>
        <time>2024-05-22T11:06:44.000Z</time>
      </trkpt>
      <trkpt lat="47.39295" lon="13.00799">
        <ele>1333</ele>
        <time>2024-05-22T11:06:50.000Z</time>
      </trkpt>
      <trkpt lat="47.3927" lon="13.00776">
        <ele>1337</ele>
        <time>2024-05-22T11:06:56.000Z</time>
      </trkpt>
      <trkpt lat="47.39269" lon="13.00665">
        <ele>1353</ele>
        <time>2024-05-22T11:07:05.000Z</time>
      </trkpt>
      <trkpt lat="47.39279" lon="13.0062">
        <ele>1360</ele>
        <time>2024-05-22T11:07:08.000Z</time>
      </trkpt>
      <trkpt lat="47.39275" lon="13.00592">
        <ele>1365</ele>
        <time>2024-05-22T11:07:11.000Z</time>
      </trkpt>
      <trkpt lat="47.3925" lon="13.00557">
        <ele>1371</ele>
        <time>2024-05-22T11:07:17.000Z</time>
      </trkpt>
      <trkpt lat="47.39248" lon="13.00482">
        <ele>1384</ele>
        <time>2024-05-22T11:07:26.000Z</time>
      </trkpt>
      <trkpt lat="47.39204" lon="13.00443">
        <ele>1383</ele>
        <time>2024-05-22T11:07:35.000Z</time>
      </trkpt>
      <trkpt lat="47.39139" lon="13.00416">
        <ele>1373</ele>
        <time>2024-05-22T11:07:53.000Z</time>
      </trkpt>
      <trkpt lat="47.39097" lon="13.00437">
        <ele>1356</ele>
        <time>2024-05-22T11:08:05.000Z</time>
      </trkpt>
      <trkpt lat="47.3908" lon="13.00496">
        <ele>1337</ele>
        <time>2024-05-22T11:08:26.000Z</time>
      </trkpt>
      <trkpt lat="47.39089" lon="13.00537">
        <ele>1333</ele>
        <time>2024-05-22T11:08:35.000Z</time>
      </trkpt>
      <trkpt lat="47.39069" lon="13.00599">
        <ele>1312</ele>
        <time>2024-05-22T11:08:50.000Z</time>
      </trkpt>
      <trkpt lat="47.3907" lon="13.00666">
        <ele>1298</ele>
        <time>2024-05-22T11:09:05.000Z</time>
      </trkpt>
      <trkpt lat="47.39022" lon="13.00689">
        <ele>1281</ele>
        <time>2024-05-22T11:09:14.000Z</time>
      </trkpt>
      <trkpt lat="47.38968" lon="13.00697">
        <ele>1258</ele>
        <time>2024-05-22T11:09:26.000Z</time>
      </trkpt>
      <trkpt lat="47.38932" lon="13.00703">
        <ele>1245</ele>
        <time>2024-05-22T11:09:38.000Z</time>
      </trkpt>
      <trkpt lat="47.38868" lon="13.00678">
        <ele>1221</ele>
        <time>2024-05-22T11:09:50.000Z</time>
      </trkpt>
      <trkpt lat="47.38835" lon="13.00612">
        <ele>1215</ele>
        <time>2024-05-22T11:10:02.000Z</time>
      </trkpt>
      <trkpt lat="47.38798" lon="13.00601">
        <ele>1195</ele>
        <time>2024-05-22T11:10:11.000Z</time>
      </trkpt>
      <trkpt lat="47.38777" lon="13.00566">
        <ele>1189</ele>
        <time>2024-05-22T11:10:17.000Z</time>
      </trkpt>
      <trkpt lat="47.38778" lon="13.00503">
        <ele>1194</ele>
        <time>2024-05-22T11:10:23.000Z</time>
      </trkpt>
      <trkpt lat="47.3876" lon="13.0046">
        <ele>1192</ele>
        <time>2024-05-22T11:10:29.000Z</time>
      </trkpt>
      <trkpt lat="47.38702" lon="13.00411">
        <ele>1187</ele>
        <time>2024-05-22T11:10:38.000Z</time>
      </trkpt>
      <trkpt lat="47.38679" lon="13.00356">
        <ele>1183</ele>
        <time>2024-05-22T11:10:44.000Z</time>
      </trkpt>
      <trkpt lat="47.38573" lon="13.00268">
        <ele>1160</ele>
        <time>2024-05-22T11:11:08.000Z</time>
      </trkpt>
      <trkpt lat="47.38529" lon="13.00297">
        <ele>1136</ele>
        <time>2024-05-22T11:11:35.000Z</time>
      </trkpt>
      <trkpt lat="47.38507" lon="13.0032">
        <ele>1121</ele>
        <time>2024-05-22T11:11:47.000Z</time>
      </trkpt>
      <trkpt lat="47.38445" lon="13.00387">
        <ele>1086</ele>
        <time>2024-05-22T11:12:05.000Z</time>
      </trkpt>
      <trkpt lat="47.38427113056144" lon="13.004234433174133">
        <ele>1074</ele>
        <time>2024-05-22T11:12:29.000Z</time>
      </trkpt>
      <trkpt lat="47.383951502194044" lon="13.004306852817537">
        <ele>1070</ele>
        <time>2024-05-22T11:12:59.000Z</time>
      </trkpt>
      <trkpt lat="47.38379" lon="13.00425">
        <ele>1066</ele>
        <time>2024-05-22T11:13:08.000Z</time>
      </trkpt>
      <trkpt lat="47.38277" lon="13.0032">
        <ele>1069</ele>
        <time>2024-05-22T11:13:17.000Z</time>
      </trkpt>
      <trkpt lat="47.38241" lon="13.00298">
        <ele>1068</ele>
        <time>2024-05-22T11:13:20.000Z</time>
      </trkpt>
      <trkpt lat="47.38197" lon="13.00226">
        <ele>1067</ele>
        <time>2024-05-22T11:13:29.000Z</time>
      </trkpt>
      <trkpt lat="47.38094" lon="13.00127">
        <ele>1060</ele>
        <time>2024-05-22T11:13:41.000Z</time>
      </trkpt>
      <trkpt lat="47.38013" lon="13.001">
        <ele>1057</ele>
        <time>2024-05-22T11:13:50.000Z</time>
      </trkpt>
      <trkpt lat="47.37943" lon="13.00054">
        <ele>1063</ele>
        <time>2024-05-22T11:14:08.000Z</time>
      </trkpt>
      <trkpt lat="47.37973" lon="12.99876">
        <ele>1119</ele>
        <time>2024-05-22T11:14:50.000Z</time>
      </trkpt>
      <trkpt lat="47.37965" lon="12.99791">
        <ele>1143</ele>
        <time>2024-05-22T11:15:14.000Z</time>
      </trkpt>
      <trkpt lat="47.379696264924554" lon="12.997180223464968">
        <ele>1172</ele>
        <time>2024-05-22T11:15:50.000Z</time>
      </trkpt>
      <trkpt lat="47.38011" lon="12.99705">
        <ele>1191</ele>
        <time>2024-05-22T11:16:02.000Z</time>
      </trkpt>
      <trkpt lat="47.38036" lon="12.99711">
        <ele>1192</ele>
        <time>2024-05-22T11:16:11.000Z</time>
      </trkpt>
      <trkpt lat="47.38065" lon="12.99684">
        <ele>1208</ele>
        <time>2024-05-22T11:16:23.000Z</time>
      </trkpt>
      <trkpt lat="47.38068" lon="12.99629">
        <ele>1221</ele>
        <time>2024-05-22T11:16:35.000Z</time>
      </trkpt>
      <trkpt lat="47.38017" lon="12.99466">
        <ele>1233</ele>
        <time>2024-05-22T11:16:59.000Z</time>
      </trkpt>
      <trkpt lat="47.38034" lon="12.9941">
        <ele>1246</ele>
        <time>2024-05-22T11:17:08.000Z</time>
      </trkpt>
      <trkpt lat="47.38071" lon="12.99357">
        <ele>1265</ele>
        <time>2024-05-22T11:17:17.000Z</time>
      </trkpt>
      <trkpt lat="47.38089" lon="12.9932">
        <ele>1272</ele>
        <time>2024-05-22T11:17:35.000Z</time>
      </trkpt>
      <trkpt lat="47.38083" lon="12.9914">
        <ele>1302</ele>
        <time>2024-05-22T11:18:05.000Z</time>
      </trkpt>
      <trkpt lat="47.38042" lon="12.99031">
        <ele>1325</ele>
        <time>2024-05-22T11:18:29.000Z</time>
      </trkpt>
      <trkpt lat="47.37996" lon="12.99037">
        <ele>1324</ele>
        <time>2024-05-22T11:18:44.000Z</time>
      </trkpt>
      <trkpt lat="47.37926" lon="12.99019">
        <ele>1343</ele>
        <time>2024-05-22T11:18:53.000Z</time>
      </trkpt>
      <trkpt lat="47.37873" lon="12.99003">
        <ele>1358</ele>
        <time>2024-05-22T11:19:11.000Z</time>
      </trkpt>
      <trkpt lat="47.37834" lon="12.9888">
        <ele>1398</ele>
        <time>2024-05-22T11:19:41.000Z</time>
      </trkpt>
      <trkpt lat="47.37738" lon="12.9886">
        <ele>1397</ele>
        <time>2024-05-22T11:20:02.000Z</time>
      </trkpt>
      <trkpt lat="47.37733" lon="12.98802">
        <ele>1406</ele>
        <time>2024-05-22T11:20:14.000Z</time>
      </trkpt>
      <trkpt lat="47.37707" lon="12.98787">
        <ele>1400</ele>
        <time>2024-05-22T11:20:20.000Z</time>
      </trkpt>
      <trkpt lat="47.37689" lon="12.98753">
        <ele>1398</ele>
        <time>2024-05-22T11:20:26.000Z</time>
      </trkpt>
      <trkpt lat="47.37686" lon="12.98702">
        <ele>1407</ele>
        <time>2024-05-22T11:20:38.000Z</time>
      </trkpt>
      <trkpt lat="47.37667" lon="12.98667">
        <ele>1407</ele>
        <time>2024-05-22T11:20:41.000Z</time>
      </trkpt>
      <trkpt lat="47.37658" lon="12.98608">
        <ele>1415</ele>
        <time>2024-05-22T11:20:47.000Z</time>
      </trkpt>
      <trkpt lat="47.37621" lon="12.98542">
        <ele>1416</ele>
        <time>2024-05-22T11:20:56.000Z</time>
      </trkpt>
      <trkpt lat="47.3761" lon="12.9847">
        <ele>1426</ele>
        <time>2024-05-22T11:21:05.000Z</time>
      </trkpt>
      <trkpt lat="47.37605" lon="12.98397">
        <ele>1440</ele>
        <time>2024-05-22T11:21:17.000Z</time>
      </trkpt>
      <trkpt lat="47.37583" lon="12.98291">
        <ele>1446</ele>
        <time>2024-05-22T11:21:32.000Z</time>
      </trkpt>
      <trkpt lat="47.3756" lon="12.9825">
        <ele>1444</ele>
        <time>2024-05-22T11:21:41.000Z</time>
      </trkpt>
      <trkpt lat="47.37556" lon="12.98167">
        <ele>1460</ele>
        <time>2024-05-22T11:21:53.000Z</time>
      </trkpt>
      <trkpt lat="47.37569" lon="12.98134">
        <ele>1469</ele>
        <time>2024-05-22T11:21:56.000Z</time>
      </trkpt>
      <trkpt lat="47.3764" lon="12.9805">
        <ele>1518</ele>
        <time>2024-05-22T11:22:50.000Z</time>
      </trkpt>
      <trkpt lat="47.37638" lon="12.97862">
        <ele>1551</ele>
        <time>2024-05-22T11:23:14.000Z</time>
      </trkpt>
      <trkpt lat="47.37571" lon="12.97581">
        <ele>1571</ele>
        <time>2024-05-22T11:23:38.000Z</time>
      </trkpt>
      <trkpt lat="47.37511" lon="12.9749">
        <ele>1558</ele>
        <time>2024-05-22T11:23:44.000Z</time>
      </trkpt>
      <trkpt lat="47.37409473762158" lon="12.972825765609741">
        <ele>1542</ele>
        <time>2024-05-22T11:24:05.000Z</time>
      </trkpt>
      <trkpt lat="47.37356" lon="12.9732">
        <ele>1535</ele>
        <time>2024-05-22T11:24:14.000Z</time>
      </trkpt>
      <trkpt lat="47.37315" lon="12.97399">
        <ele>1526</ele>
        <time>2024-05-22T11:24:26.000Z</time>
      </trkpt>
      <trkpt lat="47.3726" lon="12.97456">
        <ele>1531</ele>
        <time>2024-05-22T11:24:35.000Z</time>
      </trkpt>
      <trkpt lat="47.37226" lon="12.97459">
        <ele>1534</ele>
        <time>2024-05-22T11:24:38.000Z</time>
      </trkpt>
      <trkpt lat="47.37183" lon="12.97482">
        <ele>1538</ele>
        <time>2024-05-22T11:24:44.000Z</time>
      </trkpt>
      <trkpt lat="47.37116" lon="12.97551">
        <ele>1542</ele>
        <time>2024-05-22T11:24:53.000Z</time>
      </trkpt>
      <trkpt lat="47.37088" lon="12.97604">
        <ele>1546</ele>
        <time>2024-05-22T11:24:59.000Z</time>
      </trkpt>
      <trkpt lat="47.37001" lon="12.97646">
        <ele>1567</ele>
        <time>2024-05-22T11:25:08.000Z</time>
      </trkpt>
      <trkpt lat="47.36945" lon="12.97691">
        <ele>1583</ele>
        <time>2024-05-22T11:25:14.000Z</time>
      </trkpt>
      <trkpt lat="47.36904" lon="12.97737">
        <ele>1585</ele>
        <time>2024-05-22T11:25:20.000Z</time>
      </trkpt>
      <trkpt lat="47.36835" lon="12.97874">
        <ele>1587</ele>
        <time>2024-05-22T11:25:32.000Z</time>
      </trkpt>
      <trkpt lat="47.36811112613145" lon="12.978807091712953">
        <ele>1588</ele>
        <time>2024-05-22T11:25:38.000Z</time>
      </trkpt>
      <trkpt lat="47.367904030883984" lon="12.978528141975405">
        <ele>1588</ele>
        <time>2024-05-22T11:25:41.000Z</time>
      </trkpt>
      <trkpt lat="47.3679" lon="12.97729">
        <ele>1613</ele>
        <time>2024-05-22T11:25:59.000Z</time>
      </trkpt>
      <trkpt lat="47.36762" lon="12.97604">
        <ele>1635</ele>
        <time>2024-05-22T11:26:11.000Z</time>
      </trkpt>
      <trkpt lat="47.36742" lon="12.97366">
        <ele>1664</ele>
        <time>2024-05-22T11:26:29.000Z</time>
      </trkpt>
      <trkpt lat="47.36703" lon="12.97203">
        <ele>1672</ele>
        <time>2024-05-22T11:26:38.000Z</time>
      </trkpt>
      <trkpt lat="47.36654" lon="12.97112">
        <ele>1683</ele>
        <time>2024-05-22T11:26:44.000Z</time>
      </trkpt>
      <trkpt lat="47.36612" lon="12.97066">
        <ele>1696</ele>
        <time>2024-05-22T11:26:56.000Z</time>
      </trkpt>
      <trkpt lat="47.36595" lon="12.9707">
        <ele>1697</ele>
        <time>2024-05-22T11:27:02.000Z</time>
      </trkpt>
      <trkpt lat="47.36576" lon="12.97054">
        <ele>1702</ele>
        <time>2024-05-22T11:27:05.000Z</time>
      </trkpt>
      <trkpt lat="47.36492" lon="12.97031">
        <ele>1714</ele>
        <time>2024-05-22T11:27:14.000Z</time>
      </trkpt>
      <trkpt lat="47.36403" lon="12.96971">
        <ele>1729</ele>
        <time>2024-05-22T11:27:29.000Z</time>
      </trkpt>
      <trkpt lat="47.36366" lon="12.96877">
        <ele>1739</ele>
        <time>2024-05-22T11:27:44.000Z</time>
      </trkpt>
      <trkpt lat="47.36374" lon="12.9679">
        <ele>1755</ele>
        <time>2024-05-22T11:27:53.000Z</time>
      </trkpt>
      <trkpt lat="47.36363" lon="12.96686">
        <ele>1768</ele>
        <time>2024-05-22T11:28:08.000Z</time>
      </trkpt>
      <trkpt lat="47.36289" lon="12.96406">
        <ele>1748</ele>
        <time>2024-05-22T11:28:53.000Z</time>
      </trkpt>
      <trkpt lat="47.36095" lon="12.96363">
        <ele>1787</ele>
        <time>2024-05-22T11:29:17.000Z</time>
      </trkpt>
      <trkpt lat="47.36058" lon="12.96324">
        <ele>1792</ele>
        <time>2024-05-22T11:29:23.000Z</time>
      </trkpt>
      <trkpt lat="47.35992" lon="12.96283">
        <ele>1790</ele>
        <time>2024-05-22T11:29:38.000Z</time>
      </trkpt>
      <trkpt lat="47.3595" lon="12.96265">
        <ele>1793</ele>
        <time>2024-05-22T11:29:47.000Z</time>
      </trkpt>
      <trkpt lat="47.35889" lon="12.96233">
        <ele>1792</ele>
        <time>2024-05-22T11:30:05.000Z</time>
      </trkpt>
      <trkpt lat="47.35845" lon="12.96251">
        <ele>1797</ele>
        <time>2024-05-22T11:30:11.000Z</time>
      </trkpt>
      <trkpt lat="47.35774" lon="12.96181">
        <ele>1795</ele>
        <time>2024-05-22T11:30:23.000Z</time>
      </trkpt>
      <trkpt lat="47.35708" lon="12.96139">
        <ele>1789</ele>
        <time>2024-05-22T11:30:32.000Z</time>
      </trkpt>
      <trkpt lat="47.35659" lon="12.9612">
        <ele>1791</ele>
        <time>2024-05-22T11:30:44.000Z</time>
      </trkpt>
      <trkpt lat="47.35543" lon="12.96061">
        <ele>1797</ele>
        <time>2024-05-22T11:30:56.000Z</time>
      </trkpt>
      <trkpt lat="47.35497" lon="12.96012">
        <ele>1800</ele>
        <time>2024-05-22T11:31:02.000Z</time>
      </trkpt>
      <trkpt lat="47.35294" lon="12.95986">
        <ele>1833</ele>
        <time>2024-05-22T11:31:29.000Z</time>
      </trkpt>
      <trkpt lat="47.35252" lon="12.95962">
        <ele>1842</ele>
        <time>2024-05-22T11:31:35.000Z</time>
      </trkpt>
      <trkpt lat="47.35164" lon="12.95903">
        <ele>1886</ele>
        <time>2024-05-22T11:32:17.000Z</time>
      </trkpt>
      <trkpt lat="47.35065" lon="12.95854">
        <ele>1935</ele>
        <time>2024-05-22T11:32:47.000Z</time>
      </trkpt>
      <trkpt lat="47.34993" lon="12.95858">
        <ele>1960</ele>
        <time>2024-05-22T11:32:59.000Z</time>
      </trkpt>
      <trkpt lat="47.34927666697017" lon="12.957365512847902">
        <ele>1963</ele>
        <time>2024-05-22T11:33:05.000Z</time>
      </trkpt>
      <trkpt lat="47.34912" lon="12.95533">
        <ele>1966</ele>
        <time>2024-05-22T11:33:23.000Z</time>
      </trkpt>
      <trkpt lat="47.34909" lon="12.95378">
        <ele>1992</ele>
        <time>2024-05-22T11:33:32.000Z</time>
      </trkpt>
      <trkpt lat="47.34883" lon="12.95196">
        <ele>2011</ele>
        <time>2024-05-22T11:33:41.000Z</time>
      </trkpt>
      <trkpt lat="47.3489" lon="12.9513">
        <ele>2010</ele>
        <time>2024-05-22T11:33:47.000Z</time>
      </trkpt>
      <trkpt lat="47.34851" lon="12.94875">
        <ele>1985</ele>
        <time>2024-05-22T11:34:05.000Z</time>
      </trkpt>
      <trkpt lat="47.34807" lon="12.94708">
        <ele>1931</ele>
        <time>2024-05-22T11:34:38.000Z</time>
      </trkpt>
      <trkpt lat="47.34795" lon="12.94631">
        <ele>1910</ele>
        <time>2024-05-22T11:34:50.000Z</time>
      </trkpt>
      <trkpt lat="47.34701" lon="12.94459">
        <ele>1899</ele>
        <time>2024-05-22T11:35:23.000Z</time>
      </trkpt>
      <trkpt lat="47.34598" lon="12.94267">
        <ele>1875</ele>
        <time>2024-05-22T11:35:50.000Z</time>
      </trkpt>
      <trkpt lat="47.34481" lon="12.9419">
        <ele>1870</ele>
        <time>2024-05-22T11:36:11.000Z</time>
      </trkpt>
      <trkpt lat="47.34367" lon="12.93987">
        <ele>1856</ele>
        <time>2024-05-22T11:36:41.000Z</time>
      </trkpt>
      <trkpt lat="47.34327933526697" lon="12.939190864562988">
        <ele>1852</ele>
        <time>2024-05-22T11:36:50.000Z</time>
      </trkpt>
      <trkpt lat="47.34303" lon="12.93868">
        <ele>1853</ele>
        <time>2024-05-22T11:36:53.000Z</time>
      </trkpt>
      <trkpt lat="47.34269" lon="12.93712">
        <ele>1853</ele>
        <time>2024-05-22T11:37:02.000Z</time>
      </trkpt>
      <trkpt lat="47.34217" lon="12.93617">
        <ele>1854</ele>
        <time>2024-05-22T11:37:08.000Z</time>
      </trkpt>
      <trkpt lat="47.34191" lon="12.93542">
        <ele>1853</ele>
        <time>2024-05-22T11:37:14.000Z</time>
      </trkpt>
      <trkpt lat="47.34122" lon="12.93261">
        <ele>1859</ele>
        <time>2024-05-22T11:37:29.000Z</time>
      </trkpt>
      <trkpt lat="47.341025616318895" lon="12.932056188583376">
        <ele>1859</ele>
        <time>2024-05-22T11:37:32.000Z</time>
      </trkpt>
      <trkpt lat="47.34049" lon="12.93004">
        <ele>1860</ele>
        <time>2024-05-22T11:37:47.000Z</time>
      </trkpt>
      <trkpt lat="47.33972" lon="12.92745">
        <ele>1865</ele>
        <time>2024-05-22T11:38:02.000Z</time>
      </trkpt>
      <trkpt lat="47.3394" lon="12.92714">
        <ele>1874</ele>
        <time>2024-05-22T11:38:05.000Z</time>
      </trkpt>
      <trkpt lat="47.33937" lon="12.92692">
        <ele>1874</ele>
        <time>2024-05-22T11:38:08.000Z</time>
      </trkpt>
      <trkpt lat="47.33877" lon="12.92639">
        <ele>1890</ele>
        <time>2024-05-22T11:38:14.000Z</time>
      </trkpt>
      <trkpt lat="47.3386" lon="12.92606">
        <ele>1898</ele>
        <time>2024-05-22T11:38:17.000Z</time>
      </trkpt>
      <trkpt lat="47.33882" lon="12.92413">
        <ele>1920</ele>
        <time>2024-05-22T11:38:32.000Z</time>
      </trkpt>
      <trkpt lat="47.33904" lon="12.92388">
        <ele>1924</ele>
        <time>2024-05-22T11:38:38.000Z</time>
      </trkpt>
      <trkpt lat="47.339" lon="12.92316">
        <ele>1927</ele>
        <time>2024-05-22T11:38:44.000Z</time>
      </trkpt>
      <trkpt lat="47.34005" lon="12.92126">
        <ele>1927</ele>
        <time>2024-05-22T11:39:02.000Z</time>
      </trkpt>
      <trkpt lat="47.34036" lon="12.92089">
        <ele>1927</ele>
        <time>2024-05-22T11:39:05.000Z</time>
      </trkpt>
      <trkpt lat="47.34083" lon="12.91871">
        <ele>1959</ele>
        <time>2024-05-22T11:39:26.000Z</time>
      </trkpt>
      <trkpt lat="47.34133" lon="12.91831">
        <ele>1968</ele>
        <time>2024-05-22T11:39:35.000Z</time>
      </trkpt>
      <trkpt lat="47.34137" lon="12.91803">
        <ele>1979</ele>
        <time>2024-05-22T11:39:41.000Z</time>
      </trkpt>
      <trkpt lat="47.34196" lon="12.91751">
        <ele>1987</ele>
        <time>2024-05-22T11:39:47.000Z</time>
      </trkpt>
      <trkpt lat="47.34232" lon="12.917">
        <ele>1989</ele>
        <time>2024-05-22T11:39:53.000Z</time>
      </trkpt>
      <trkpt lat="47.34218" lon="12.9167">
        <ele>2002</ele>
        <time>2024-05-22T11:40:05.000Z</time>
      </trkpt>
      <trkpt lat="47.34202" lon="12.91606">
        <ele>2008</ele>
        <time>2024-05-22T11:40:20.000Z</time>
      </trkpt>
      <trkpt lat="47.34091" lon="12.91397">
        <ele>2053</ele>
        <time>2024-05-22T11:41:08.000Z</time>
      </trkpt>
      <trkpt lat="47.34067" lon="12.91352">
        <ele>2059</ele>
        <time>2024-05-22T11:41:11.000Z</time>
      </trkpt>
      <trkpt lat="47.34032" lon="12.91314">
        <ele>2064</ele>
        <time>2024-05-22T11:41:14.000Z</time>
      </trkpt>
      <trkpt lat="47.3397642187221" lon="12.912915945053102">
        <ele>2078</ele>
        <time>2024-05-22T11:41:23.000Z</time>
      </trkpt>
      <trkpt lat="47.339288006029356" lon="12.912540435791016">
        <ele>2080</ele>
        <time>2024-05-22T11:41:29.000Z</time>
      </trkpt>
      <trkpt lat="47.33892" lon="12.91273">
        <ele>2090</ele>
        <time>2024-05-22T11:41:41.000Z</time>
      </trkpt>
      <trkpt lat="47.33878" lon="12.91266">
        <ele>2095</ele>
        <time>2024-05-22T11:41:44.000Z</time>
      </trkpt>
      <trkpt lat="47.33838" lon="12.91163">
        <ele>2094</ele>
        <time>2024-05-22T11:41:53.000Z</time>
      </trkpt>
      <trkpt lat="47.338" lon="12.91124">
        <ele>2092</ele>
        <time>2024-05-22T11:42:05.000Z</time>
      </trkpt>
      <trkpt lat="47.33722" lon="12.91033">
        <ele>2076</ele>
        <time>2024-05-22T11:42:41.000Z</time>
      </trkpt>
      <trkpt lat="47.336883248085705" lon="12.909619510173798">
        <ele>2048</ele>
        <time>2024-05-22T11:43:05.000Z</time>
      </trkpt>
      <trkpt lat="47.33668" lon="12.90789">
        <ele>1982</ele>
        <time>2024-05-22T11:43:50.000Z</time>
      </trkpt>
      <trkpt lat="47.33621" lon="12.90647">
        <ele>1940</ele>
        <time>2024-05-22T11:44:02.000Z</time>
      </trkpt>
      <trkpt lat="47.33506" lon="12.90461">
        <ele>1905</ele>
        <time>2024-05-22T11:44:23.000Z</time>
      </trkpt>
      <trkpt lat="47.33486" lon="12.90368">
        <ele>1906</ele>
        <time>2024-05-22T11:44:41.000Z</time>
      </trkpt>
      <trkpt lat="47.33493" lon="12.90099">
        <ele>1917</ele>
        <time>2024-05-22T11:44:59.000Z</time>
      </trkpt>
      <trkpt lat="47.33515" lon="12.90021">
        <ele>1920</ele>
        <time>2024-05-22T11:45:05.000Z</time>
      </trkpt>
      <trkpt lat="47.33599" lon="12.89837">
        <ele>1922</ele>
        <time>2024-05-22T11:45:17.000Z</time>
      </trkpt>
      <trkpt lat="47.33688" lon="12.89728">
        <ele>1913</ele>
        <time>2024-05-22T11:45:26.000Z</time>
      </trkpt>
      <trkpt lat="47.33735" lon="12.89716">
        <ele>1913</ele>
        <time>2024-05-22T11:45:32.000Z</time>
      </trkpt>
      <trkpt lat="47.33792" lon="12.89672">
        <ele>1922</ele>
        <time>2024-05-22T11:45:38.000Z</time>
      </trkpt>
      <trkpt lat="47.33833" lon="12.89678">
        <ele>1926</ele>
        <time>2024-05-22T11:45:50.000Z</time>
      </trkpt>
      <trkpt lat="47.3393" lon="12.89632">
        <ele>1919</ele>
        <time>2024-05-22T11:46:14.000Z</time>
      </trkpt>
      <trkpt lat="47.33996" lon="12.89582">
        <ele>1911</ele>
        <time>2024-05-22T11:46:26.000Z</time>
      </trkpt>
      <trkpt lat="47.34034" lon="12.89536">
        <ele>1903</ele>
        <time>2024-05-22T11:46:32.000Z</time>
      </trkpt>
      <trkpt lat="47.34057" lon="12.89485">
        <ele>1896</ele>
        <time>2024-05-22T11:46:38.000Z</time>
      </trkpt>
      <trkpt lat="47.34091" lon="12.89457">
        <ele>1890</ele>
        <time>2024-05-22T11:46:41.000Z</time>
      </trkpt>
      <trkpt lat="47.3422" lon="12.89388">
        <ele>1862</ele>
        <time>2024-05-22T11:47:05.000Z</time>
      </trkpt>
      <trkpt lat="47.34301" lon="12.89319">
        <ele>1857</ele>
        <time>2024-05-22T11:47:23.000Z</time>
      </trkpt>
      <trkpt lat="47.34359" lon="12.89309">
        <ele>1855</ele>
        <time>2024-05-22T11:47:35.000Z</time>
      </trkpt>
      <trkpt lat="47.34382" lon="12.89294">
        <ele>1855</ele>
        <time>2024-05-22T11:47:38.000Z</time>
      </trkpt>
      <trkpt lat="47.34468" lon="12.89205">
        <ele>1848</ele>
        <time>2024-05-22T11:47:53.000Z</time>
      </trkpt>
      <trkpt lat="47.3453" lon="12.89078">
        <ele>1832</ele>
        <time>2024-05-22T11:48:11.000Z</time>
      </trkpt>
      <trkpt lat="47.34676" lon="12.88939">
        <ele>1836</ele>
        <time>2024-05-22T11:48:35.000Z</time>
      </trkpt>
      <trkpt lat="47.34696" lon="12.88905">
        <ele>1834</ele>
        <time>2024-05-22T11:48:38.000Z</time>
      </trkpt>
      <trkpt lat="47.34758" lon="12.88705">
        <ele>1817</ele>
        <time>2024-05-22T11:48:59.000Z</time>
      </trkpt>
      <trkpt lat="47.34802" lon="12.88424">
        <ele>1814</ele>
        <time>2024-05-22T11:49:38.000Z</time>
      </trkpt>
      <trkpt lat="47.3485" lon="12.88396">
        <ele>1819</ele>
        <time>2024-05-22T11:49:47.000Z</time>
      </trkpt>
      <trkpt lat="47.34889" lon="12.88335">
        <ele>1827</ele>
        <time>2024-05-22T11:49:53.000Z</time>
      </trkpt>
      <trkpt lat="47.34924" lon="12.88234">
        <ele>1839</ele>
        <time>2024-05-22T11:50:08.000Z</time>
      </trkpt>
      <trkpt lat="47.34971" lon="12.88195">
        <ele>1842</ele>
        <time>2024-05-22T11:50:14.000Z</time>
      </trkpt>
      <trkpt lat="47.35013" lon="12.8805">
        <ele>1848</ele>
        <time>2024-05-22T11:50:35.000Z</time>
      </trkpt>
      <trkpt lat="47.35092" lon="12.87896">
        <ele>1875</ele>
        <time>2024-05-22T11:50:59.000Z</time>
      </trkpt>
      <trkpt lat="47.35117" lon="12.878">
        <ele>1887</ele>
        <time>2024-05-22T11:51:08.000Z</time>
      </trkpt>
      <trkpt lat="47.35211" lon="12.87747">
        <ele>1913</ele>
        <time>2024-05-22T11:51:26.000Z</time>
      </trkpt>
      <trkpt lat="47.35264" lon="12.87637">
        <ele>1929</ele>
        <time>2024-05-22T11:51:35.000Z</time>
      </trkpt>
      <trkpt lat="47.35294" lon="12.87614">
        <ele>1934</ele>
        <time>2024-05-22T11:51:41.000Z</time>
      </trkpt>
      <trkpt lat="47.3531545786813" lon="12.875767350196838">
        <ele>1955</ele>
        <time>2024-05-22T11:52:02.000Z</time>
      </trkpt>
      <trkpt lat="47.3534453197166" lon="12.875343561172487">
        <ele>1954</ele>
        <time>2024-05-22T11:52:05.000Z</time>
      </trkpt>
      <trkpt lat="47.35354" lon="12.87503">
        <ele>1955</ele>
        <time>2024-05-22T11:52:11.000Z</time>
      </trkpt>
      <trkpt lat="47.35406" lon="12.87422">
        <ele>1949</ele>
        <time>2024-05-22T11:52:17.000Z</time>
      </trkpt>
      <trkpt lat="47.35433570417295" lon="12.874088287353517">
        <ele>1943</ele>
        <time>2024-05-22T11:52:35.000Z</time>
      </trkpt>
      <trkpt lat="47.3545" lon="12.87384">
        <ele>1939</ele>
        <time>2024-05-22T11:52:41.000Z</time>
      </trkpt>
      <trkpt lat="47.35470275624916" lon="12.873728871345522">
        <ele>1939</ele>
        <time>2024-05-22T11:52:44.000Z</time>
      </trkpt>
      <trkpt lat="47.355013476555875" lon="12.8735089302063">
        <ele>1927</ele>
        <time>2024-05-22T11:52:59.000Z</time>
      </trkpt>
      <trkpt lat="47.3552079029517" lon="12.873187065124513">
        <ele>1925</ele>
        <time>2024-05-22T11:53:11.000Z</time>
      </trkpt>
      <trkpt lat="47.35552407144891" lon="12.8730046749115">
        <ele>1922</ele>
        <time>2024-05-22T11:53:14.000Z</time>
      </trkpt>
      <trkpt lat="47.35597" lon="12.87259">
        <ele>1916</ele>
        <time>2024-05-22T11:53:26.000Z</time>
      </trkpt>
      <trkpt lat="47.35649800387941" lon="12.87197470664978">
        <ele>1916</ele>
        <time>2024-05-22T11:53:47.000Z</time>
      </trkpt>
      <trkpt lat="47.35693" lon="12.87186">
        <ele>1920</ele>
        <time>2024-05-22T11:54:02.000Z</time>
      </trkpt>
      <trkpt lat="47.35729" lon="12.87148">
        <ele>1934</ele>
        <time>2024-05-22T11:54:08.000Z</time>
      </trkpt>
      <trkpt lat="47.35754" lon="12.8711">
        <ele>1943</ele>
        <time>2024-05-22T11:54:23.000Z</time>
      </trkpt>
      <trkpt lat="47.3581" lon="12.87054">
        <ele>1951</ele>
        <time>2024-05-22T11:54:38.000Z</time>
      </trkpt>
      <trkpt lat="47.3589" lon="12.86909">
        <ele>1942</ele>
        <time>2024-05-22T11:54:53.000Z</time>
      </trkpt>
      <trkpt lat="47.3598" lon="12.8682">
        <ele>1941</ele>
        <time>2024-05-22T11:55:08.000Z</time>
      </trkpt>
      <trkpt lat="47.36048" lon="12.86771">
        <ele>1925</ele>
        <time>2024-05-22T11:55:23.000Z</time>
      </trkpt>
      <trkpt lat="47.36084" lon="12.86649">
        <ele>1922</ele>
        <time>2024-05-22T11:55:38.000Z</time>
      </trkpt>
      <trkpt lat="47.36269" lon="12.86431">
        <ele>1952</ele>
        <time>2024-05-22T11:56:11.000Z</time>
      </trkpt>
      <trkpt lat="47.3631" lon="12.8639">
        <ele>1965</ele>
        <time>2024-05-22T11:56:26.000Z</time>
      </trkpt>
      <trkpt lat="47.36391" lon="12.86362">
        <ele>1987</ele>
        <time>2024-05-22T11:56:38.000Z</time>
      </trkpt>
      <trkpt lat="47.36439" lon="12.86325">
        <ele>1986</ele>
        <time>2024-05-22T11:56:47.000Z</time>
      </trkpt>
      <trkpt lat="47.3647" lon="12.8634">
        <ele>1975</ele>
        <time>2024-05-22T11:56:56.000Z</time>
      </trkpt>
      <trkpt lat="47.36531" lon="12.86357">
        <ele>1946</ele>
        <time>2024-05-22T11:57:11.000Z</time>
      </trkpt>
      <trkpt lat="47.36587" lon="12.86394">
        <ele>1927</ele>
        <time>2024-05-22T11:57:20.000Z</time>
      </trkpt>
      <trkpt lat="47.36727" lon="12.86527">
        <ele>1923</ele>
        <time>2024-05-22T11:57:35.000Z</time>
      </trkpt>
      <trkpt lat="47.36816" lon="12.86569">
        <ele>1926</ele>
        <time>2024-05-22T11:57:44.000Z</time>
      </trkpt>
      <trkpt lat="47.3683" lon="12.86559">
        <ele>1925</ele>
        <time>2024-05-22T11:57:47.000Z</time>
      </trkpt>
      <trkpt lat="47.36862" lon="12.86568">
        <ele>1924</ele>
        <time>2024-05-22T11:57:53.000Z</time>
      </trkpt>
      <trkpt lat="47.36931" lon="12.86636">
        <ele>1919</ele>
        <time>2024-05-22T11:58:02.000Z</time>
      </trkpt>
      <trkpt lat="47.36985" lon="12.86648">
        <ele>1919</ele>
        <time>2024-05-22T11:58:08.000Z</time>
      </trkpt>
      <trkpt lat="47.37008" lon="12.86624">
        <ele>1914</ele>
        <time>2024-05-22T11:58:14.000Z</time>
      </trkpt>
      <trkpt lat="47.37044" lon="12.86561">
        <ele>1893</ele>
        <time>2024-05-22T11:58:29.000Z</time>
      </trkpt>
      <trkpt lat="47.37088" lon="12.86545">
        <ele>1881</ele>
        <time>2024-05-22T11:58:35.000Z</time>
      </trkpt>
      <trkpt lat="47.371152062709065" lon="12.865462303161623">
        <ele>1854</ele>
        <time>2024-05-22T11:58:50.000Z</time>
      </trkpt>
      <trkpt lat="47.37161708892748" lon="12.86526918411255">
        <ele>1831</ele>
        <time>2024-05-22T11:58:53.000Z</time>
      </trkpt>
      <trkpt lat="47.37197312185452" lon="12.865226268768312">
        <ele>1819</ele>
        <time>2024-05-22T11:58:56.000Z</time>
      </trkpt>
      <trkpt lat="47.372285556932844" lon="12.865730524063112">
        <ele>1820</ele>
        <time>2024-05-22T11:58:59.000Z</time>
      </trkpt>
      <trkpt lat="47.37252" lon="12.86664">
        <ele>1828</ele>
        <time>2024-05-22T11:59:20.000Z</time>
      </trkpt>
      <trkpt lat="47.37383" lon="12.86746">
        <ele>1767</ele>
        <time>2024-05-22T11:59:50.000Z</time>
      </trkpt>
      <trkpt lat="47.37413" lon="12.86842">
        <ele>1745</ele>
        <time>2024-05-22T12:00:11.000Z</time>
      </trkpt>
      <trkpt lat="47.37486" lon="12.86915">
        <ele>1714</ele>
        <time>2024-05-22T12:00:20.000Z</time>
      </trkpt>
      <trkpt lat="47.37544" lon="12.87032">
        <ele>1684</ele>
        <time>2024-05-22T12:00:32.000Z</time>
      </trkpt>
      <trkpt lat="47.3758" lon="12.87041">
        <ele>1675</ele>
        <time>2024-05-22T12:00:38.000Z</time>
      </trkpt>
      <trkpt lat="47.37629" lon="12.87055">
        <ele>1671</ele>
        <time>2024-05-22T12:00:44.000Z</time>
      </trkpt>
      <trkpt lat="47.37672" lon="12.8711">
        <ele>1662</ele>
        <time>2024-05-22T12:00:53.000Z</time>
      </trkpt>
      <trkpt lat="47.37706" lon="12.87171">
        <ele>1655</ele>
        <time>2024-05-22T12:00:59.000Z</time>
      </trkpt>
      <trkpt lat="47.37776" lon="12.872">
        <ele>1655</ele>
        <time>2024-05-22T12:01:05.000Z</time>
      </trkpt>
      <trkpt lat="47.37817061606565" lon="12.872548699378969">
        <ele>1637</ele>
        <time>2024-05-22T12:01:11.000Z</time>
      </trkpt>
      <trkpt lat="47.37845758672192" lon="12.872875928878786">
        <ele>1627</ele>
        <time>2024-05-22T12:01:17.000Z</time>
      </trkpt>
      <trkpt lat="47.37868" lon="12.87318">
        <ele>1631</ele>
        <time>2024-05-22T12:01:20.000Z</time>
      </trkpt>
      <trkpt lat="47.378918916022215" lon="12.873117327690126">
        <ele>1624</ele>
        <time>2024-05-22T12:01:26.000Z</time>
      </trkpt>
      <trkpt lat="47.37923130994919" lon="12.873208522796633">
        <ele>1611</ele>
        <time>2024-05-22T12:01:32.000Z</time>
      </trkpt>
      <trkpt lat="47.37943" lon="12.87305">
        <ele>1607</ele>
        <time>2024-05-22T12:01:35.000Z</time>
      </trkpt>
      <trkpt lat="47.37978" lon="12.87305">
        <ele>1597</ele>
        <time>2024-05-22T12:01:38.000Z</time>
      </trkpt>
      <trkpt lat="47.3803" lon="12.87341">
        <ele>1572</ele>
        <time>2024-05-22T12:01:44.000Z</time>
      </trkpt>
      <trkpt lat="47.38168" lon="12.87365">
        <ele>1523</ele>
        <time>2024-05-22T12:01:56.000Z</time>
      </trkpt>
      <trkpt lat="47.3824" lon="12.87352">
        <ele>1498</ele>
        <time>2024-05-22T12:02:05.000Z</time>
      </trkpt>
      <trkpt lat="47.38248" lon="12.8736">
        <ele>1494</ele>
        <time>2024-05-22T12:02:08.000Z</time>
      </trkpt>
      <trkpt lat="47.38257" lon="12.87348">
        <ele>1491</ele>
        <time>2024-05-22T12:02:14.000Z</time>
      </trkpt>
      <trkpt lat="47.38346" lon="12.87333">
        <ele>1457</ele>
        <time>2024-05-22T12:02:23.000Z</time>
      </trkpt>
      <trkpt lat="47.38396" lon="12.87366">
        <ele>1444</ele>
        <time>2024-05-22T12:02:29.000Z</time>
      </trkpt>
      <trkpt lat="47.38469" lon="12.87374">
        <ele>1423</ele>
        <time>2024-05-22T12:02:35.000Z</time>
      </trkpt>
      <trkpt lat="47.38518" lon="12.87394">
        <ele>1409</ele>
        <time>2024-05-22T12:02:41.000Z</time>
      </trkpt>
      <trkpt lat="47.38552" lon="12.87447">
        <ele>1402</ele>
        <time>2024-05-22T12:02:47.000Z</time>
      </trkpt>
      <trkpt lat="47.38581" lon="12.87462">
        <ele>1401</ele>
        <time>2024-05-22T12:02:53.000Z</time>
      </trkpt>
      <trkpt lat="47.38614" lon="12.87541">
        <ele>1404</ele>
        <time>2024-05-22T12:02:59.000Z</time>
      </trkpt>
      <trkpt lat="47.38602" lon="12.87674">
        <ele>1400</ele>
        <time>2024-05-22T12:03:17.000Z</time>
      </trkpt>
      <trkpt lat="47.38503" lon="12.87739">
        <ele>1371</ele>
        <time>2024-05-22T12:03:50.000Z</time>
      </trkpt>
      <trkpt lat="47.38505021658781" lon="12.878776788711548">
        <ele>1345</ele>
        <time>2024-05-22T12:04:14.000Z</time>
      </trkpt>
      <trkpt lat="47.38562" lon="12.8805">
        <ele>1313</ele>
        <time>2024-05-22T12:04:32.000Z</time>
      </trkpt>
      <trkpt lat="47.38544429534417" lon="12.881206870079042">
        <ele>1290</ele>
        <time>2024-05-22T12:04:50.000Z</time>
      </trkpt>
      <trkpt lat="47.38558" lon="12.88143">
        <ele>1290</ele>
        <time>2024-05-22T12:05:02.000Z</time>
      </trkpt>
      <trkpt lat="47.38579" lon="12.88186">
        <ele>1289</ele>
        <time>2024-05-22T12:05:23.000Z</time>
      </trkpt>
      <trkpt lat="47.38598" lon="12.88196">
        <ele>1293</ele>
        <time>2024-05-22T12:05:38.000Z</time>
      </trkpt>
      <trkpt lat="47.38636" lon="12.88272">
        <ele>1293</ele>
        <time>2024-05-22T12:06:17.000Z</time>
      </trkpt>
      <trkpt lat="47.38652" lon="12.88377">
        <ele>1287</ele>
        <time>2024-05-22T12:06:59.000Z</time>
      </trkpt>
      <trkpt lat="47.38695" lon="12.88478">
        <ele>1290</ele>
        <time>2024-05-22T12:07:38.000Z</time>
      </trkpt>
      <trkpt lat="47.38684" lon="12.88659">
        <ele>1266</ele>
        <time>2024-05-22T12:08:38.000Z</time>
      </trkpt>
      <trkpt lat="47.38717" lon="12.88743">
        <ele>1262</ele>
        <time>2024-05-22T12:09:17.000Z</time>
      </trkpt>
      <trkpt lat="47.38755084149374" lon="12.888049185276033">
        <ele>1262</ele>
        <time>2024-05-22T12:10:14.000Z</time>
      </trkpt>
      <trkpt lat="47.38788315962057" lon="12.888435423374178">
        <ele>1256</ele>
        <time>2024-05-22T12:10:23.000Z</time>
      </trkpt>
      <trkpt lat="47.38792" lon="12.88881">
        <ele>1250</ele>
        <time>2024-05-22T12:10:32.000Z</time>
      </trkpt>
      <trkpt lat="47.38849" lon="12.88903">
        <ele>1251</ele>
        <time>2024-05-22T12:11:08.000Z</time>
      </trkpt>
      <trkpt lat="47.38887" lon="12.88943">
        <ele>1241</ele>
        <time>2024-05-22T12:11:32.000Z</time>
      </trkpt>
      <trkpt lat="47.38945" lon="12.8904">
        <ele>1213</ele>
        <time>2024-05-22T12:12:20.000Z</time>
      </trkpt>
      <trkpt lat="47.38997" lon="12.89076">
        <ele>1205</ele>
        <time>2024-05-22T12:12:50.000Z</time>
      </trkpt>
      <trkpt lat="47.39031" lon="12.89093">
        <ele>1197</ele>
        <time>2024-05-22T12:13:08.000Z</time>
      </trkpt>
      <trkpt lat="47.39145" lon="12.89106">
        <ele>1167</ele>
        <time>2024-05-22T12:14:05.000Z</time>
      </trkpt>
      <trkpt lat="47.39187" lon="12.89029">
        <ele>1170</ele>
        <time>2024-05-22T12:14:47.000Z</time>
      </trkpt>
      <trkpt lat="47.39219" lon="12.89019">
        <ele>1160</ele>
        <time>2024-05-22T12:15:05.000Z</time>
      </trkpt>
      <trkpt lat="47.39244" lon="12.88982">
        <ele>1156</ele>
        <time>2024-05-22T12:15:26.000Z</time>
      </trkpt>
      <trkpt lat="47.39288" lon="12.8895">
        <ele>1151</ele>
        <time>2024-05-22T12:15:53.000Z</time>
      </trkpt>
      <trkpt lat="47.39311" lon="12.88937">
        <ele>1146</ele>
        <time>2024-05-22T12:16:08.000Z</time>
      </trkpt>
      <trkpt lat="47.39346" lon="12.8895">
        <ele>1134</ele>
        <time>2024-05-22T12:16:32.000Z</time>
      </trkpt>
      <trkpt lat="47.39414" lon="12.88946">
        <ele>1111</ele>
        <time>2024-05-22T12:17:08.000Z</time>
      </trkpt>
      <trkpt lat="47.39493" lon="12.88886">
        <ele>1097</ele>
        <time>2024-05-22T12:17:53.000Z</time>
      </trkpt>
      <trkpt lat="47.39546" lon="12.88866">
        <ele>1089</ele>
        <time>2024-05-22T12:18:20.000Z</time>
      </trkpt>
      <trkpt lat="47.39576" lon="12.88836">
        <ele>1091</ele>
        <time>2024-05-22T12:18:41.000Z</time>
      </trkpt>
      <trkpt lat="47.39637" lon="12.88885">
        <ele>1065</ele>
        <time>2024-05-22T12:19:20.000Z</time>
      </trkpt>
      <trkpt lat="47.39665" lon="12.88893">
        <ele>1055</ele>
        <time>2024-05-22T12:19:38.000Z</time>
      </trkpt>
      <trkpt lat="47.3974" lon="12.88872">
        <ele>1039</ele>
        <time>2024-05-22T12:20:20.000Z</time>
      </trkpt>
      <trkpt lat="47.39846" lon="12.88796">
        <ele>1019</ele>
        <time>2024-05-22T12:21:26.000Z</time>
      </trkpt>
      <trkpt lat="47.3994" lon="12.88764">
        <ele>993</ele>
        <time>2024-05-22T12:22:17.000Z</time>
      </trkpt>
      <trkpt lat="47.39959" lon="12.88791">
        <ele>985</ele>
        <time>2024-05-22T12:22:32.000Z</time>
      </trkpt>
      <trkpt lat="47.39976" lon="12.88908">
        <ele>971</ele>
        <time>2024-05-22T12:23:14.000Z</time>
      </trkpt>
      <trkpt lat="47.39986" lon="12.88916">
        <ele>968</ele>
        <time>2024-05-22T12:23:20.000Z</time>
      </trkpt>
      <trkpt lat="47.40061" lon="12.88858">
        <ele>952</ele>
        <time>2024-05-22T12:24:11.000Z</time>
      </trkpt>
      <trkpt lat="47.40166" lon="12.8884">
        <ele>931</ele>
        <time>2024-05-22T12:25:08.000Z</time>
      </trkpt>
      <trkpt lat="47.40235" lon="12.88849">
        <ele>917</ele>
        <time>2024-05-22T12:25:53.000Z</time>
      </trkpt>
      <trkpt lat="47.40270278063249" lon="12.88823425769806">
        <ele>907</ele>
        <time>2024-05-22T12:26:20.000Z</time>
      </trkpt>
      <trkpt lat="47.40298" lon="12.88797">
        <ele>907</ele>
        <time>2024-05-22T12:26:26.000Z</time>
      </trkpt>
      <trkpt lat="47.4032129139055" lon="12.888185977935793">
        <ele>901</ele>
        <time>2024-05-22T12:26:41.000Z</time>
      </trkpt>
      <trkpt lat="47.40322" lon="12.88869">
        <ele>900</ele>
        <time>2024-05-22T12:27:05.000Z</time>
      </trkpt>
      <trkpt lat="47.40295512475505" lon="12.88926422595978">
        <ele>903</ele>
        <time>2024-05-22T12:27:14.000Z</time>
      </trkpt>
      <trkpt lat="47.40263" lon="12.89008">
        <ele>905</ele>
        <time>2024-05-22T12:27:56.000Z</time>
      </trkpt>
      <trkpt lat="47.40263" lon="12.89051">
        <ele>903</ele>
        <time>2024-05-22T12:28:08.000Z</time>
      </trkpt>
      <trkpt lat="47.40361" lon="12.89121">
        <ele>884</ele>
        <time>2024-05-22T12:28:53.000Z</time>
      </trkpt>
      <trkpt lat="47.40402076610038" lon="12.892045676708223">
        <ele>874</ele>
        <time>2024-05-22T12:29:38.000Z</time>
      </trkpt>
      <trkpt lat="47.404158735124305" lon="12.892249524593355">
        <ele>872</ele>
        <time>2024-05-22T12:29:50.000Z</time>
      </trkpt>
      <trkpt lat="47.40416" lon="12.89325">
        <ele>871</ele>
        <time>2024-05-22T12:30:41.000Z</time>
      </trkpt>
      <trkpt lat="47.40348" lon="12.89401">
        <ele>878</ele>
        <time>2024-05-22T12:31:23.000Z</time>
      </trkpt>
      <trkpt lat="47.40277" lon="12.89562">
        <ele>879</ele>
        <time>2024-05-22T12:32:29.000Z</time>
      </trkpt>
      <trkpt lat="47.4021" lon="12.89623">
        <ele>883</ele>
        <time>2024-05-22T12:33:05.000Z</time>
      </trkpt>
      <trkpt lat="47.40247" lon="12.89797">
        <ele>867</ele>
        <time>2024-05-22T12:33:38.000Z</time>
      </trkpt>
      <trkpt lat="47.40235" lon="12.89884">
        <ele>856</ele>
        <time>2024-05-22T12:34:08.000Z</time>
      </trkpt>
      <trkpt lat="47.40224" lon="12.89992">
        <ele>837</ele>
        <time>2024-05-22T12:34:35.000Z</time>
      </trkpt>
      <trkpt lat="47.40245" lon="12.90007">
        <ele>834</ele>
        <time>2024-05-22T12:34:38.000Z</time>
      </trkpt>
      <trkpt lat="47.40285" lon="12.90008">
        <ele>832</ele>
        <time>2024-05-22T12:34:41.000Z</time>
      </trkpt>
      <trkpt lat="47.40365" lon="12.89955">
        <ele>830</ele>
        <time>2024-05-22T12:34:50.000Z</time>
      </trkpt>
      <trkpt lat="47.40386" lon="12.89926">
        <ele>829</ele>
        <time>2024-05-22T12:34:53.000Z</time>
      </trkpt>
      <trkpt lat="47.40433" lon="12.89912">
        <ele>819</ele>
        <time>2024-05-22T12:35:02.000Z</time>
      </trkpt>
      <trkpt lat="47.40491" lon="12.89854">
        <ele>814</ele>
        <time>2024-05-22T12:35:14.000Z</time>
      </trkpt>
      <trkpt lat="47.40532" lon="12.89962">
        <ele>798</ele>
        <time>2024-05-22T12:35:47.000Z</time>
      </trkpt>
      <trkpt lat="47.40577" lon="12.90067">
        <ele>796</ele>
        <time>2024-05-22T12:36:08.000Z</time>
      </trkpt>
      <trkpt lat="47.40628" lon="12.90144">
        <ele>798</ele>
        <time>2024-05-22T12:36:14.000Z</time>
      </trkpt>
      <trkpt lat="47.40667" lon="12.90281">
        <ele>799</ele>
        <time>2024-05-22T12:36:26.000Z</time>
      </trkpt>
      <trkpt lat="47.4068" lon="12.90401">
        <ele>802</ele>
        <time>2024-05-22T12:36:35.000Z</time>
      </trkpt>
      <trkpt lat="47.40701" lon="12.90466">
        <ele>804</ele>
        <time>2024-05-22T12:36:50.000Z</time>
      </trkpt>
      <trkpt lat="47.40701" lon="12.90564">
        <ele>806</ele>
        <time>2024-05-22T12:37:11.000Z</time>
      </trkpt>
    </trkseg>
  </trk>
  
  
</gpx>